[{"OBJECT_NAME":"ONEWEB-0124","OBJECT_ID":"2020-100N","EPOCH":"2026-02-27T06:18:12.841632","MEAN_MOTION":13.12440532,"ECCENTRICITY":0.00017181,"INCLINATION":87.8982,"RA_OF_ASC_NODE":12.4963,"ARG_OF_PERICENTER":81.6998,"MEAN_ANOMALY":278.4325,"EPHEMERIS_TYPE":0,"CLASSIFICATION_TYPE":"U","NORAD_CAT_ID":47270,"ELEMENT_SET_NO":999,"REV_AT_EPOCH":25015,"BSTAR":-0.00010506921,"MEAN_MOTION_DOT":-2.5e-7,"MEAN_MOTION_DDOT":0},{"OBJECT_NAME":"ONEWEB-0125","OBJECT_ID":"2020-100P","EPOCH":"2026-02-27T05:46:31.488672","MEAN_MOTION":13.12434407,"ECCENTRICITY":0.00014992,"INCLINATION":87.898,"RA_OF_ASC_NODE":12.4701,"ARG_OF_PERICENTER":67.7673,"MEAN_ANOMALY":292.3615,"EPHEMERIS_TYPE":0,"CLASSIFICATION_TYPE":"U","NORAD_CAT_ID":47271,"ELEMENT_SET_NO":999,"REV_AT_EPOCH":25021,"BSTAR":-0.0025948328,"MEAN_MOTION_DOT":-9.21e-6,"MEAN_MOTION_DDOT":0},{"OBJECT_NAME":"ONEWEB-0126","OBJECT_ID":"2020-100Q","EPOCH":"2026-02-27T06:15:58.427424","MEAN_MOTION":13.12440618,"ECCENTRICITY":0.00019618,"INCLINATION":87.8991,"RA_OF_ASC_NODE":12.4903,"ARG_OF_PERICENTER":80.9603,"MEAN_ANOMALY":279.1748,"EPHEMERIS_TYPE":0,"CLASSIFICATION_TYPE":"U","NORAD_CAT_ID":47272,"ELEMENT_SET_NO":999,"REV_AT_EPOCH":25028,"BSTAR":0.00023890038,"MEAN_MOTION_DOT":9.9e-7,"MEAN_MOTION_DDOT":0},{"OBJECT_NAME":"ONEWEB-0127","OBJECT_ID":"2020-100R","EPOCH":"2026-02-27T05:26:59.203968","MEAN_MOTION":13.12441001,"ECCENTRICITY":0.00019592,"INCLINATION":87.898,"RA_OF_ASC_NODE":12.5018,"ARG_OF_PERICENTER":83.2229,"MEAN_ANOMALY":276.9123,"EPHEMERIS_TYPE":0,"CLASSIFICATION_TYPE":"U","NORAD_CAT_ID":47273,"ELEMENT_SET_NO":999,"REV_AT_EPOCH":25030,"BSTAR":-6.507773e-6,"MEAN_MOTION_DOT":1.0e-7,"MEAN_MOTION_DDOT":0},{"OBJECT_NAME":"ONEWEB-0128","OBJECT_ID":"2020-100S","EPOCH":"2026-02-27T05:58:43.048704","MEAN_MOTION":13.12441538,"ECCENTRICITY":0.00016461,"INCLINATION":87.8977,"RA_OF_ASC_NODE":12.5116,"ARG_OF_PERICENTER":90.5334,"MEAN_ANOMALY":269.5983,"EPHEMERIS_TYPE":0,"CLASSIFICATION_TYPE":"U","NORAD_CAT_ID":47274,"ELEMENT_SET_NO":999,"REV_AT_EPOCH":25032,"BSTAR":0.0011201694,"MEAN_MOTION_DOT":4.16e-6,"MEAN_MOTION_DDOT":0},{"OBJECT_NAME":"ONEWEB-0129","OBJECT_ID":"2020-100T","EPOCH":"2026-02-27T05:29:26.318112","MEAN_MOTION":13.12442558,"ECCENTRICITY":0.00029542,"INCLINATION":87.8989,"RA_OF_ASC_NODE":12.4781,"ARG_OF_PERICENTER":87.4999,"MEAN_ANOMALY":272.6467,"EPHEMERIS_TYPE":0,"CLASSIFICATION_TYPE":"U","NORAD_CAT_ID":47275,"ELEMENT_SET_NO":999,"REV_AT_EPOCH":25025,"BSTAR":0.00062781287,"MEAN_MOTION_DOT":2.39e-6,"MEAN_MOTION_DDOT":0},{"OBJECT_NAME":"ONEWEB-0130","OBJECT_ID":"2020-100U","EPOCH":"2026-02-27T06:08:27.965472","MEAN_MOTION":13.1244073,"ECCENTRICITY":0.00019035,"INCLINATION":87.8987,"RA_OF_ASC_NODE":12.4668,"ARG_OF_PERICENTER":83.5534,"MEAN_ANOMALY":276.5812,"EPHEMERIS_TYPE":0,"CLASSIFICATION_TYPE":"U","NORAD_CAT_ID":47276,"ELEMENT_SET_NO":999,"REV_AT_EPOCH":25022,"BSTAR":0.00070557909,"MEAN_MOTION_DOT":2.67e-6,"MEAN_MOTION_DDOT":0},{"OBJECT_NAME":"ONEWEB-0131","OBJECT_ID":"2020-100V","EPOCH":"2026-02-27T06:03:34.867296","MEAN_MOTION":13.1244083,"ECCENTRICITY":0.00018539,"INCLINATION":87.8984,"RA_OF_ASC_NODE":12.4971,"ARG_OF_PERICENTER":80.5021,"MEAN_ANOMALY":279.6317,"EPHEMERIS_TYPE":0,"CLASSIFICATION_TYPE":"U","NORAD_CAT_ID":47277,"ELEMENT_SET_NO":999,"REV_AT_EPOCH":25026,"BSTAR":0.00079231635,"MEAN_MOTION_DOT":2.98e-6,"MEAN_MOTION_DDOT":0},{"OBJECT_NAME":"ONEWEB-0132","OBJECT_ID":"2020-100W","EPOCH":"2026-02-27T06:45:02.542752","MEAN_MOTION":13.1244189,"ECCENTRICITY":0.00017332,"INCLINATION":87.8981,"RA_OF_ASC_NODE":12.4906,"ARG_OF_PERICENTER":82.6569,"MEAN_ANOMALY":277.4756,"EPHEMERIS_TYPE":0,"CLASSIFICATION_TYPE":"U","NORAD_CAT_ID":47278,"ELEMENT_SET_NO":999,"REV_AT_EPOCH":25016,"BSTAR":-0.0012583157,"MEAN_MOTION_DOT":-4.4e-6,"MEAN_MOTION_DDOT":0},{"OBJECT_NAME":"ONEWEB-0133","OBJECT_ID":"2020-100X","EPOCH":"2026-02-26T20:10:33.484512","MEAN_MOTION":13.1244203,"ECCENTRICITY":0.00017247,"INCLINATION":87.8992,"RA_OF_ASC_NODE":12.5416,"ARG_OF_PERICENTER":84.4249,"MEAN_ANOMALY":275.7076,"EPHEMERIS_TYPE":0,"CLASSIFICATION_TYPE":"U","NORAD_CAT_ID":47279,"ELEMENT_SET_NO":999,"REV_AT_EPOCH":25026,"BSTAR":0.0001376288,"MEAN_MOTION_DOT":6.2e-7,"MEAN_MOTION_DDOT":0},{"OBJECT_NAME":"ONEWEB-0134","OBJECT_ID":"2020-100Y","EPOCH":"2026-02-27T06:25:32.385216","MEAN_MOTION":13.12441331,"ECCENTRICITY":0.00019122,"INCLINATION":87.8994,"RA_OF_ASC_NODE":12.4537,"ARG_OF_PERICENTER":89.1657,"MEAN_ANOMALY":270.9691,"EPHEMERIS_TYPE":0,"CLASSIFICATION_TYPE":"U","NORAD_CAT_ID":47280,"ELEMENT_SET_NO":999,"REV_AT_EPOCH":25029,"BSTAR":-0.0004988391,"MEAN_MOTION_DOT":-1.67e-6,"MEAN_MOTION_DDOT":0},{"OBJECT_NAME":"ONEWEB-0135","OBJECT_ID":"2020-100Z","EPOCH":"2026-02-27T05:44:03.937344","MEAN_MOTION":13.12445281,"ECCENTRICITY":0.00018457,"INCLINATION":87.8979,"RA_OF_ASC_NODE":12.4966,"ARG_OF_PERICENTER":93.7008,"MEAN_ANOMALY":266.4332,"EPHEMERIS_TYPE":0,"CLASSIFICATION_TYPE":"U","NORAD_CAT_ID":47281,"ELEMENT_SET_NO":999,"REV_AT_EPOCH":25031,"BSTAR":0.0022126025,"MEAN_MOTION_DOT":8.09e-6,"MEAN_MOTION_DDOT":0},{"OBJECT_NAME":"ONEWEB-0136","OBJECT_ID":"2020-100AA","EPOCH":"2026-02-27T06:10:53.755104","MEAN_MOTION":13.12440279,"ECCENTRICITY":0.00020684,"INCLINATION":87.8992,"RA_OF_ASC_NODE":12.465,"ARG_OF_PERICENTER":91.2637,"MEAN_ANOMALY":268.8729,"EPHEMERIS_TYPE":0,"CLASSIFICATION_TYPE":"U","NORAD_CAT_ID":47282,"ELEMENT_SET_NO":999,"REV_AT_EPOCH":25024,"BSTAR":0.00046042394,"MEAN_MOTION_DOT":1.78e-6,"MEAN_MOTION_DDOT":0},{"OBJECT_NAME":"ONEWEB-0137","OBJECT_ID":"2020-100AB","EPOCH":"2026-02-26T20:01:00.057216","MEAN_MOTION":13.12443024,"ECCENTRICITY":0.00018936,"INCLINATION":87.8989,"RA_OF_ASC_NODE":12.5543,"ARG_OF_PERICENTER":76.6492,"MEAN_ANOMALY":283.4848,"EPHEMERIS_TYPE":0,"CLASSIFICATION_TYPE":"U","NORAD_CAT_ID":47283,"ELEMENT_SET_NO":999,"REV_AT_EPOCH":25009,"BSTAR":-0.00085150297,"MEAN_MOTION_DOT":-2.94e-6,"MEAN_MOTION_DDOT":0},{"OBJECT_NAME":"ONEWEB-0138","OBJECT_ID":"2020-100AC","EPOCH":"2026-02-27T06:27:58.581792","MEAN_MOTION":13.12441174,"ECCENTRICITY":0.00019639,"INCLINATION":87.8994,"RA_OF_ASC_NODE":12.477,"ARG_OF_PERICENTER":85.873,"MEAN_ANOMALY":274.2623,"EPHEMERIS_TYPE":0,"CLASSIFICATION_TYPE":"U","NORAD_CAT_ID":47284,"ELEMENT_SET_NO":999,"REV_AT_EPOCH":25023,"BSTAR":-0.0005927762,"MEAN_MOTION_DOT":-2.01e-6,"MEAN_MOTION_DDOT":0},{"OBJECT_NAME":"ONEWEB-0139","OBJECT_ID":"2020-100AD","EPOCH":"2026-02-27T05:36:57.917952","MEAN_MOTION":13.12442201,"ECCENTRICITY":0.00019045,"INCLINATION":87.8991,"RA_OF_ASC_NODE":12.4721,"ARG_OF_PERICENTER":81.9991,"MEAN_ANOMALY":278.1354,"EPHEMERIS_TYPE":0,"CLASSIFICATION_TYPE":"U","NORAD_CAT_ID":47285,"ELEMENT_SET_NO":999,"REV_AT_EPOCH":25030,"BSTAR":0.00074892899,"MEAN_MOTION_DOT":2.82e-6,"MEAN_MOTION_DDOT":0},{"OBJECT_NAME":"ONEWEB-0140","OBJECT_ID":"2020-100AE","EPOCH":"2026-02-27T06:20:39.174720","MEAN_MOTION":13.12440568,"ECCENTRICITY":0.00016905,"INCLINATION":87.899,"RA_OF_ASC_NODE":12.4542,"ARG_OF_PERICENTER":82.9245,"MEAN_ANOMALY":277.2076,"EPHEMERIS_TYPE":0,"CLASSIFICATION_TYPE":"U","NORAD_CAT_ID":47286,"ELEMENT_SET_NO":999,"REV_AT_EPOCH":25027,"BSTAR":-5.6376688e-5,"MEAN_MOTION_DOT":-8.0e-8,"MEAN_MOTION_DDOT":0}]
