ONEWEB-0124             
1 47270U 20100N   26058.26264863 -.00000025  00000+0 -10507-3 0  9995
2 47270  87.8982  12.4963 0001718  81.6998 278.4325 13.12440532250156
ONEWEB-0125             
1 47271U 20100P   26058.24064223 -.00000921  00000+0 -25948-2 0  9991
2 47271  87.8980  12.4701 0001499  67.7673 292.3615 13.12434407250214
ONEWEB-0126             
1 47272U 20100Q   26058.26109291  .00000099  00000+0  23890-3 0  9998
2 47272  87.8991  12.4903 0001961  80.9603 279.1748 13.12440618250283
ONEWEB-0127             
1 47273U 20100R   26058.22707412  .00000010  00000+0 -65078-5 0  9994
2 47273  87.8980  12.5018 0001959  83.2229 276.9123 13.12441001250309
ONEWEB-0128             
1 47274U 20100S   26058.24910936  .00000416  00000+0  11202-2 0  9990
2 47274  87.8977  12.5116 0001646  90.5334 269.5983 13.12441538250325
ONEWEB-0129             
1 47275U 20100T   26058.22877683  .00000239  00000+0  62781-3 0  9992
2 47275  87.8989  12.4781 0002954  87.4999 272.6467 13.12442558250258
ONEWEB-0130             
1 47276U 20100U   26058.25587923  .00000267  00000+0  70558-3 0  9993
2 47276  87.8987  12.4668 0001903  83.5534 276.5812 13.12440730250220
ONEWEB-0131             
1 47277U 20100V   26058.25248689  .00000298  00000+0  79232-3 0  9999
2 47277  87.8984  12.4971 0001853  80.5021 279.6317 13.12440830250266
ONEWEB-0132             
1 47278U 20100W   26058.28127943 -.00000440  00000+0 -12583-2 0  9998
2 47278  87.8981  12.4906 0001733  82.6569 277.4756 13.12441890250168
ONEWEB-0133             
1 47279U 20100X   26057.84066533  .00000062  00000+0  13763-3 0  9997
2 47279  87.8992  12.5416 0001724  84.4249 275.7076 13.12442030250267
ONEWEB-0134             
1 47280U 20100Y   26058.26773594 -.00000167  00000+0 -49884-3 0  9999
2 47280  87.8994  12.4537 0001912  89.1657 270.9691 13.12441331250294
ONEWEB-0135             
1 47281U 20100Z   26058.23893446  .00000809  00000+0  22126-2 0  9996
2 47281  87.8979  12.4966 0001845  93.7008 266.4332 13.12445281250313
ONEWEB-0136             
1 47282U 20100AA  26058.25756661  .00000178  00000+0  46042-3 0  9999
2 47282  87.8992  12.4650 0002068  91.2637 268.8729 13.12440279250248
ONEWEB-0137             
1 47283U 20100AB  26057.83402844 -.00000294  00000+0 -85150-3 0  9998
2 47283  87.8989  12.5543 0001893  76.6492 283.4848 13.12443024250097
ONEWEB-0138             
1 47284U 20100AC  26058.26942803 -.00000201  00000+0 -59278-3 0  9991
2 47284  87.8994  12.4770 0001963  85.8730 274.2623 13.12441174250239
ONEWEB-0139             
1 47285U 20100AD  26058.23400368  .00000282  00000+0  74893-3 0  9991
2 47285  87.8991  12.4721 0001904  81.9991 278.1354 13.12442201250308
ONEWEB-0140             
1 47286U 20100AE  26058.26434230 -.00000008  00000+0 -56377-4 0  9996
2 47286  87.8990  12.4542 0001690  82.9245 277.2076 13.12440568250275
